0 SAC C
1 26620U 00075B   13283.41607056  .00000429  00000-0  10419-3 0   303
2 26620 097.9482 254.5673 0001798 100.6554 071.5680 14.57319846685155
0 SAC C
1 26620U 00075B   13284.44498625  .00000464  00000-0  11200-3 0   316
2 26620 097.9482 255.5497 0001832 099.8088 067.2494 14.57320557685303
0 SAC C
1 26620U 00075B   13285.47230653  .00000394  00000-0  96512-4 0   328
2 26620 097.9484 256.5305 0001800 099.2799 054.2516 14.57321676685452
0 SAC C
1 26620U 00075B   13286.49389465  .00000430  00000-0  10441-3 0   335
2 26620 097.9485 257.5057 0001829 098.7014 011.2536 14.57322628685603
0 SAC C
1 26620U 00075B   13287.78976157  .00000576  00000-0  13682-3 0   340
2 26620 097.9489 258.7428 0001794 097.8782 326.6124 14.57324865685796
0 SAC C
1 26620U 00075B   13289.45648089  .00000521  00000-0  12453-3 0   352
2 26620 097.9494 260.3339 0001764 097.0793 066.4280 14.57327954686035
0 SAC C
1 26620U 00075B   13290.54987566  .00000611  00000-0  14443-3 0   362
2 26620 097.9497 261.3778 0001753 096.2770 040.1762 14.57328892686193
0 SAC C
1 26620U 00075B   13291.57758089  .00000650  00000-0  15299-3 0   376
2 26620 097.9499 262.3589 0001826 094.9387 030.0403 14.57329699686349
0 SAC C
1 26620U 00075B   13292.80154705  .00000607  00000-0  14365-3 0   384
2 26620 097.9499 263.5278 0001824 095.1175 327.4446 14.57332162686522
0 SAC C
1 26620U 00075B   13293.83072181  .00000766  00000-0  17876-3 0   392
2 26620 097.9502 264.5105 0001729 094.4877 324.3186 14.57334007686675
0 SAC C
1 26620U 00075B   13294.99447012  .00000757  00000-0  17664-3 0   406
2 26620 097.9503 265.6218 0001719 093.6976 306.9633 14.57335971686846
0 SAC C
1 26620U 00075B   13296.02427910  .00000763  00000-0  17809-3 0   416
2 26620 097.9503 266.6053 0001684 093.0753 307.1672 14.57337917686996
